[{"OBJECT_NAME":"GSAT0215 (GALILEO 19)","OBJECT_ID":"2017-079A","EPOCH":"2026-01-31T22:17:23.039232","MEAN_MOTION":1.70474177,"ECCENTRICITY":0.00010425,"INCLINATION":55.1164,"RA_OF_ASC_NODE":225.2537,"ARG_OF_PERICENTER":25.5758,"MEAN_ANOMALY":334.4495,"EPHEMERIS_TYPE":0,"CLASSIFICATION_TYPE":"U","NORAD_CAT_ID":43055,"ELEMENT_SET_NO":999,"REV_AT_EPOCH":5066,"BSTAR":0,"MEAN_MOTION_DOT":6.1e-7,"MEAN_MOTION_DDOT":0},{"OBJECT_NAME":"GSAT0216 (GALILEO 20)","OBJECT_ID":"2017-079B","EPOCH":"2026-02-01T19:21:26.103168","MEAN_MOTION":1.70474332,"ECCENTRICITY":0.00018573,"INCLINATION":55.115,"RA_OF_ASC_NODE":225.2294,"ARG_OF_PERICENTER":335.1872,"MEAN_ANOMALY":24.8164,"EPHEMERIS_TYPE":0,"CLASSIFICATION_TYPE":"U","NORAD_CAT_ID":43056,"ELEMENT_SET_NO":999,"REV_AT_EPOCH":5069,"BSTAR":0,"MEAN_MOTION_DOT":5.4e-7,"MEAN_MOTION_DDOT":0},{"OBJECT_NAME":"GSAT0217 (GALILEO 21)","OBJECT_ID":"2017-079C","EPOCH":"2026-01-30T16:20:37.794336","MEAN_MOTION":1.70474153,"ECCENTRICITY":0.00025648,"INCLINATION":55.1157,"RA_OF_ASC_NODE":225.2857,"ARG_OF_PERICENTER":3.492,"MEAN_ANOMALY":356.5398,"EPHEMERIS_TYPE":0,"CLASSIFICATION_TYPE":"U","NORAD_CAT_ID":43057,"ELEMENT_SET_NO":999,"REV_AT_EPOCH":5064,"BSTAR":0,"MEAN_MOTION_DOT":7.4e-7,"MEAN_MOTION_DDOT":0},{"OBJECT_NAME":"GSAT0218 (GALILEO 22)","OBJECT_ID":"2017-079D","EPOCH":"2026-02-01T01:46:49.285920","MEAN_MOTION":1.70474229,"ECCENTRICITY":0.00019444,"INCLINATION":55.1144,"RA_OF_ASC_NODE":225.2451,"ARG_OF_PERICENTER":318.8162,"MEAN_ANOMALY":41.188,"EPHEMERIS_TYPE":0,"CLASSIFICATION_TYPE":"U","NORAD_CAT_ID":43058,"ELEMENT_SET_NO":999,"REV_AT_EPOCH":5069,"BSTAR":0,"MEAN_MOTION_DOT":6.0e-7,"MEAN_MOTION_DDOT":0},{"OBJECT_NAME":"GSAT0221 (GALILEO 25)","OBJECT_ID":"2018-060A","EPOCH":"2026-01-31T23:27:01.120320","MEAN_MOTION":1.70475392,"ECCENTRICITY":0.00063281,"INCLINATION":57.214,"RA_OF_ASC_NODE":345.4613,"ARG_OF_PERICENTER":298.487,"MEAN_ANOMALY":61.4322,"EPHEMERIS_TYPE":0,"CLASSIFICATION_TYPE":"U","NORAD_CAT_ID":43564,"ELEMENT_SET_NO":999,"REV_AT_EPOCH":4684,"BSTAR":0,"MEAN_MOTION_DOT":-1.02e-6,"MEAN_MOTION_DDOT":0},{"OBJECT_NAME":"GSAT0222 (GALILEO 26)","OBJECT_ID":"2018-060B","EPOCH":"2026-02-01T04:42:59.340960","MEAN_MOTION":1.70475117,"ECCENTRICITY":0.00052405,"INCLINATION":57.2175,"RA_OF_ASC_NODE":345.4586,"ARG_OF_PERICENTER":279.1026,"MEAN_ANOMALY":80.8213,"EPHEMERIS_TYPE":0,"CLASSIFICATION_TYPE":"U","NORAD_CAT_ID":43565,"ELEMENT_SET_NO":999,"REV_AT_EPOCH":4689,"BSTAR":0,"MEAN_MOTION_DOT":-1.03e-6,"MEAN_MOTION_DDOT":0},{"OBJECT_NAME":"GSAT0219 (GALILEO 23)","OBJECT_ID":"2018-060C","EPOCH":"2026-01-31T05:51:58.540320","MEAN_MOTION":1.70475322,"ECCENTRICITY":0.00056533,"INCLINATION":57.2171,"RA_OF_ASC_NODE":345.4859,"ARG_OF_PERICENTER":304.7808,"MEAN_ANOMALY":55.1491,"EPHEMERIS_TYPE":0,"CLASSIFICATION_TYPE":"U","NORAD_CAT_ID":43566,"ELEMENT_SET_NO":999,"REV_AT_EPOCH":4685,"BSTAR":0,"MEAN_MOTION_DOT":-1.01e-6,"MEAN_MOTION_DDOT":0},{"OBJECT_NAME":"GSAT0220 (GALILEO 24)","OBJECT_ID":"2018-060D","EPOCH":"2026-02-01T15:19:30.103104","MEAN_MOTION":1.70475269,"ECCENTRICITY":0.00058527,"INCLINATION":57.2163,"RA_OF_ASC_NODE":345.4479,"ARG_OF_PERICENTER":300.9494,"MEAN_ANOMALY":58.9764,"EPHEMERIS_TYPE":0,"CLASSIFICATION_TYPE":"U","NORAD_CAT_ID":43567,"ELEMENT_SET_NO":999,"REV_AT_EPOCH":4686,"BSTAR":0,"MEAN_MOTION_DOT":-1.04e-6,"MEAN_MOTION_DDOT":0},{"OBJECT_NAME":"GSAT0223 (GALILEO 27)","OBJECT_ID":"2021-116A","EPOCH":"2026-02-01T04:46:08.796288","MEAN_MOTION":1.70475316,"ECCENTRICITY":0.0003507,"INCLINATION":57.2056,"RA_OF_ASC_NODE":345.3501,"ARG_OF_PERICENTER":271.6863,"MEAN_ANOMALY":269.0806,"EPHEMERIS_TYPE":0,"CLASSIFICATION_TYPE":"U","NORAD_CAT_ID":49809,"ELEMENT_SET_NO":999,"REV_AT_EPOCH":2586,"BSTAR":0,"MEAN_MOTION_DOT":-1.03e-6,"MEAN_MOTION_DDOT":0},{"OBJECT_NAME":"GSAT0224 (GALILEO 28)","OBJECT_ID":"2021-116B","EPOCH":"2026-02-01T13:52:45.939936","MEAN_MOTION":1.70475349,"ECCENTRICITY":0.0002961,"INCLINATION":57.2061,"RA_OF_ASC_NODE":345.3386,"ARG_OF_PERICENTER":281.6259,"MEAN_ANOMALY":244.7077,"EPHEMERIS_TYPE":0,"CLASSIFICATION_TYPE":"U","NORAD_CAT_ID":49810,"ELEMENT_SET_NO":999,"REV_AT_EPOCH":2589,"BSTAR":0,"MEAN_MOTION_DOT":-1.04e-6,"MEAN_MOTION_DDOT":0},{"OBJECT_NAME":"GSAT0225 (GALILEO 29)","OBJECT_ID":"2024-079A","EPOCH":"2026-02-01T07:41:36.981024","MEAN_MOTION":1.70474844,"ECCENTRICITY":0.00020951,"INCLINATION":55.0299,"RA_OF_ASC_NODE":104.8785,"ARG_OF_PERICENTER":233.0448,"MEAN_ANOMALY":127.8661,"EPHEMERIS_TYPE":0,"CLASSIFICATION_TYPE":"U","NORAD_CAT_ID":59598,"ELEMENT_SET_NO":999,"REV_AT_EPOCH":1100,"BSTAR":0,"MEAN_MOTION_DOT":-2.1e-7,"MEAN_MOTION_DDOT":0},{"OBJECT_NAME":"GSAT0227 (GALILEO 30)","OBJECT_ID":"2024-079C","EPOCH":"2026-01-31T21:59:01.751136","MEAN_MOTION":1.7047484,"ECCENTRICITY":0.00010511,"INCLINATION":55.0249,"RA_OF_ASC_NODE":104.8889,"ARG_OF_PERICENTER":122.1563,"MEAN_ANOMALY":237.9055,"EPHEMERIS_TYPE":0,"CLASSIFICATION_TYPE":"U","NORAD_CAT_ID":59600,"ELEMENT_SET_NO":999,"REV_AT_EPOCH":1104,"BSTAR":0,"MEAN_MOTION_DOT":-2.2e-7,"MEAN_MOTION_DDOT":0},{"OBJECT_NAME":"GSAT0232 (GALILEO 32)","OBJECT_ID":"2024-167A","EPOCH":"2026-01-10T19:19:07.147776","MEAN_MOTION":1.70473658,"ECCENTRICITY":0.00017712,"INCLINATION":55.2321,"RA_OF_ASC_NODE":225.6317,"ARG_OF_PERICENTER":188.3607,"MEAN_ANOMALY":9.6826,"EPHEMERIS_TYPE":0,"CLASSIFICATION_TYPE":"U","NORAD_CAT_ID":61182,"ELEMENT_SET_NO":999,"REV_AT_EPOCH":819,"BSTAR":0,"MEAN_MOTION_DOT":6.7e-7,"MEAN_MOTION_DDOT":0},{"OBJECT_NAME":"GSAT0226 (GALILEO 31)","OBJECT_ID":"2024-167B","EPOCH":"2026-02-01T07:58:57.973152","MEAN_MOTION":1.70473843,"ECCENTRICITY":0.00017258,"INCLINATION":55.2264,"RA_OF_ASC_NODE":225.0451,"ARG_OF_PERICENTER":112.3399,"MEAN_ANOMALY":90.4045,"EPHEMERIS_TYPE":0,"CLASSIFICATION_TYPE":"U","NORAD_CAT_ID":61183,"ELEMENT_SET_NO":999,"REV_AT_EPOCH":853,"BSTAR":0,"MEAN_MOTION_DOT":5.8e-7,"MEAN_MOTION_DDOT":0}]
