GSAT0215 (GALILEO 19)   
1 43055U 17079A   26031.92873888  .00000061  00000+0  00000+0 0  9991
2 43055  55.1164 225.2537 0001042  25.5758 334.4495  1.70474177 50663
GSAT0216 (GALILEO 20)   
1 43056U 17079B   26032.80655212  .00000054  00000+0  00000+0 0  9991
2 43056  55.1150 225.2294 0001857 335.1872  24.8164  1.70474332 50699
GSAT0217 (GALILEO 21)   
1 43057U 17079C   26030.68099299  .00000074  00000+0  00000+0 0  9995
2 43057  55.1157 225.2857 0002564   3.4920 356.5398  1.70474153 50647
GSAT0218 (GALILEO 22)   
1 43058U 17079D   26032.07418155  .00000060  00000+0  00000+0 0  9992
2 43058  55.1144 225.2451 0001944 318.8162  41.1880  1.70474229 50698
GSAT0221 (GALILEO 25)   
1 43564U 18060A   26031.97709630 -.00000102  00000+0  00000+0 0  9992
2 43564  57.2140 345.4613 0006328 298.4870  61.4322  1.70475392 46844
GSAT0222 (GALILEO 26)   
1 43565U 18060B   26032.19652015 -.00000103  00000+0  00000+0 0  9993
2 43565  57.2175 345.4586 0005240 279.1026  80.8213  1.70475117 46897
GSAT0219 (GALILEO 23)   
1 43566U 18060C   26031.24442755 -.00000101  00000+0  00000+0 0  9995
2 43566  57.2171 345.4859 0005653 304.7808  55.1491  1.70475322 46855
GSAT0220 (GALILEO 24)   
1 43567U 18060D   26032.63854286 -.00000104  00000+0  00000+0 0  9999
2 43567  57.2163 345.4479 0005852 300.9494  58.9764  1.70475269 46860
GSAT0223 (GALILEO 27)   
1 49809U 21116A   26032.19871292 -.00000103  00000+0  00000+0 0  9996
2 49809  57.2056 345.3501 0003507 271.6863 269.0806  1.70475316 25862
GSAT0224 (GALILEO 28)   
1 49810U 21116B   26032.57830949 -.00000104  00000+0  00000+0 0  9995
2 49810  57.2061 345.3386 0002961 281.6259 244.7077  1.70475349 25893
GSAT0225 (GALILEO 29)   
1 59598U 24079A   26032.32056691 -.00000021  00000+0  00000+0 0  9995
2 59598  55.0299 104.8785 0002095 233.0448 127.8661  1.70474844 11003
GSAT0227 (GALILEO 30)   
1 59600U 24079C   26031.91599249 -.00000022  00000+0  00000+0 0  9995
2 59600  55.0249 104.8889 0001051 122.1563 237.9055  1.70474840 11044
GSAT0232 (GALILEO 32)   
1 61182U 24167A   26010.80494384  .00000067  00000+0  00000+0 0  9998
2 61182  55.2321 225.6317 0001771 188.3607   9.6826  1.70473658  8193
GSAT0226 (GALILEO 31)   
1 61183U 24167B   26032.33261543  .00000058  00000+0  00000+0 0  9990
2 61183  55.2264 225.0451 0001725 112.3399  90.4045  1.70473843  8532
